EUTELSAT 21B            
1 38992U 12062B   25338.21948868  .00000146  00000+0  00000+0 0  9998
2 38992   0.0676 347.5432 0003375 278.9429 267.4453  1.00274134 47878
EUTELSAT 70B            
1 39020U 12069A   25338.58596845 -.00000029  00000+0  00000+0 0  9993
2 39020   0.0633   4.4819 0004320 238.1635 112.4595  1.00271728 47557
EUTELSAT 117 WEST A     
1 39122U 13012A   25338.54878823  .00000001  00000+0  00000+0 0  9999
2 39122   0.0194 314.6933 0003209 301.1810 258.5257  1.00272437 46482
EUTELSAT 7B             
1 39163U 13022A   25338.42961490  .00000063  00000+0  00000+0 0  9993
2 39163   0.0678   2.7542 0004273 308.3811 284.0236  1.00269718 46004
EXPRESS-AT1             
1 39612U 14010A   25338.58302176  .00000093  00000+0  00000+0 0  9990
2 39612   0.0176 304.2222 0000136 222.5945 172.7241  1.00270212 42860
EXPRESS-AT2             
1 39613U 14010B   25338.67098897  .00000000  00000+0  00000+0 0  9991
2 39613   0.0202 341.4557 0001528 312.4947 161.1947  1.00270108 42557
EUTELSAT 3B             
1 39773U 14030A   25338.57253505  .00000034  00000+0  00000+0 0  9995
2 39773   0.0634   5.1533 0004772 224.1164  53.5813  1.00271062 42113
EUTELSAT 115 WEST B     
1 40425U 15010B   25338.54922156 -.00000011  00000+0  00000+0 0  9998
2 40425   0.0149 139.4558 0000404 272.1995 104.8079  1.00275299 39443
